start=new Date('2023-01-09T00:00:00.000Z').valueOf();
sats=[{"APOAPSIS":"574.108","NORAD_CAT_ID":"49148","MEAN_MOTION_DOT":"0.00004019","OBJECT_TYPE":"PAYLOAD","ARG_OF_PERICENTER":"274.7087","SITE":"AFWTR","MEAN_MOTION":"14.98336861","COUNTRY_CODE":"US","PERIAPSIS":"569.966","TIME_SYSTEM":"UTC","REF_FRAME":"TEME","TLE_LINE2":"2 49148  70.0022 308.7236 0002980 274.7087  85.3732 14.98336861 73335","LAUNCH_DATE":"2021-09-14","ECCENTRICITY":"0.00029800","PERIOD":"96.107","BSTAR":"0.00034433000000","OBJECT_NAME":"STARLINK-3048","GP_ID":"222497465","FILE":"3736460","MEAN_MOTION_DDOT":"0.0000000000000","CENTER_NAME":"EARTH","RCS_SIZE":"LARGE","RA_OF_ASC_NODE":"308.7236","SEMIMAJOR_AXIS":"6950.172","DECAY_DATE":null,"CLASSIFICATION_TYPE":"U","MEAN_ELEMENT_THEORY":"SGP4","EPOCH":"2023-01-08T20:24:37.450080","INCLINATION":"70.0022","REV_AT_EPOCH":"7333","TLE_LINE1":"1 49148U 21082U   23008.85043345  .00004019  00000-0  34433-3 0  9998","ELEMENT_SET_NO":"999","OBJECT_ID":"2021-082U","EPHEMERIS_TYPE":"0","MEAN_ANOMALY":"85.3732"},{"COUNTRY_CODE":"US","REF_FRAME":"TEME","TIME_SYSTEM":"UTC","PERIAPSIS":"570.360","SITE":"AFWTR","NORAD_CAT_ID":"49149","APOAPSIS":"573.941","ARG_OF_PERICENTER":"269.2580","MEAN_MOTION_DOT":"-0.00004770","OBJECT_TYPE":"PAYLOAD","MEAN_MOTION":"14.98299960","REV_AT_EPOCH":"7400","INCLINATION":"70.0018","EPOCH":"2023-01-08T14:46:18.647904","EPHEMERIS_TYPE":"0","MEAN_ANOMALY":"90.8284","TLE_LINE1":"1 49149U 21082V   23008.61549361 -.00004770  00000-0 -39255-3 0  9995","ELEMENT_SET_NO":"999","OBJECT_ID":"2021-082V","GP_ID":"222497716","OBJECT_NAME":"STARLINK-3053","FILE":"3736460","BSTAR":"-0.00039255000000","PERIOD":"96.109","ECCENTRICITY":"0.00025760","LAUNCH_DATE":"2021-09-14","TLE_LINE2":"2 49149  70.0018 329.3368 0002576 269.2580  90.8284 14.98299960 74000","SEMIMAJOR_AXIS":"6950.286","DECAY_DATE":null,"CLASSIFICATION_TYPE":"U","MEAN_ELEMENT_THEORY":"SGP4","RCS_SIZE":"LARGE","RA_OF_ASC_NODE":"329.3368","MEAN_MOTION_DDOT":"0.0000000000000","CENTER_NAME":"EARTH"},{"EPOCH":"2023-01-08T21:03:54.624384","INCLINATION":"70.0012","REV_AT_EPOCH":"7404","ELEMENT_SET_NO":"999","OBJECT_ID":"2021-082W","TLE_LINE1":"1 49150U 21082W   23008.87771556  .00001054  00000-0  96131-4 0  9995","MEAN_ANOMALY":"98.3113","EPHEMERIS_TYPE":"0","LAUNCH_DATE":"2021-09-14","TLE_LINE2":"2 49150  70.0012 328.6718 0002955 261.7711  98.3113 14.98334492 74049","ECCENTRICITY":"0.00029550","PERIOD":"96.107","BSTAR":"0.00009613100000","GP_ID":"222496464","OBJECT_NAME":"STARLINK-3104","FILE":"3736460","MEAN_MOTION_DDOT":"0.0000000000000","CENTER_NAME":"EARTH","RA_OF_ASC_NODE":"328.6718","RCS_SIZE":"LARGE","CLASSIFICATION_TYPE":"U","MEAN_ELEMENT_THEORY":"SGP4","DECAY_DATE":null,"SEMIMAJOR_AXIS":"6950.179","COUNTRY_CODE":"US","PERIAPSIS":"569.990","TIME_SYSTEM":"UTC","REF_FRAME":"TEME","MEAN_MOTION_DOT":"0.00001054","OBJECT_TYPE":"PAYLOAD","ARG_OF_PERICENTER":"261.7711","APOAPSIS":"574.098","NORAD_CAT_ID":"49150","SITE":"AFWTR","MEAN_MOTION":"14.98334492"},{"MEAN_MOTION":"14.98337107","SITE":"AFWTR","OBJECT_TYPE":"PAYLOAD","MEAN_MOTION_DOT":"0.00003933","ARG_OF_PERICENTER":"259.0090","APOAPSIS":"574.063","NORAD_CAT_ID":"49151","REF_FRAME":"TEME","PERIAPSIS":"570.009","TIME_SYSTEM":"UTC","COUNTRY_CODE":"US","CLASSIFICATION_TYPE":"U","MEAN_ELEMENT_THEORY":"SGP4","SEMIMAJOR_AXIS":"6950.171","DECAY_DATE":null,"CENTER_NAME":"EARTH","MEAN_MOTION_DDOT":"0.0000000000000","RCS_SIZE":"LARGE","RA_OF_ASC_NODE":"288.6190","BSTAR":"0.00033713000000","GP_ID":"222496714","OBJECT_NAME":"STARLINK-3102","FILE":"3736460","LAUNCH_DATE":"2021-09-14","TLE_LINE2":"2 49151  70.0011 288.6190 0002916 259.0090 101.0741 14.98337107 75030","ECCENTRICITY":"0.00029160","PERIOD":"96.107","MEAN_ANOMALY":"101.0741","EPHEMERIS_TYPE":"0","ELEMENT_SET_NO":"999","OBJECT_ID":"2021-082X","TLE_LINE1":"1 49151U 21082X   23008.89467609  .00003933  00000-0  33713-3 0  9993","INCLINATION":"70.0011","REV_AT_EPOCH":"7503","EPOCH":"2023-01-08T21:28:20.014176"},{"REF_FRAME":"TEME","PERIAPSIS":"570.095","TIME_SYSTEM":"UTC","COUNTRY_CODE":"US","MEAN_MOTION":"14.98338968","SITE":"AFWTR","OBJECT_TYPE":"PAYLOAD","MEAN_MOTION_DOT":"0.00015532","ARG_OF_PERICENTER":"270.0639","APOAPSIS":"573.966","NORAD_CAT_ID":"49152","MEAN_ANOMALY":"90.0201","EPHEMERIS_TYPE":"0","ELEMENT_SET_NO":"999","OBJECT_ID":"2021-082Y","TLE_LINE1":"1 49152U 21082Y   23008.06972911  .00015532  00000-0  13063-2 0  9993","INCLINATION":"70.0027","REV_AT_EPOCH":"7483","EPOCH":"2023-01-08T01:40:24.595104","CLASSIFICATION_TYPE":"U","MEAN_ELEMENT_THEORY":"SGP4","DECAY_DATE":null,"SEMIMAJOR_AXIS":"6950.165","MEAN_MOTION_DDOT":"0.0000000000000","CENTER_NAME":"EARTH","RCS_SIZE":"LARGE","RA_OF_ASC_NODE":"290.6905","BSTAR":"0.00130630000000","GP_ID":"222466483","OBJECT_NAME":"STARLINK-3081","FILE":"3736235","LAUNCH_DATE":"2021-09-14","TLE_LINE2":"2 49152  70.0027 290.6905 0002785 270.0639  90.0201 14.98338968 74832","PERIOD":"96.106","ECCENTRICITY":"0.00027850"},{"SITE":"AFWTR","MEAN_MOTION_DOT":"0.00003949","OBJECT_TYPE":"PAYLOAD","ARG_OF_PERICENTER":"275.7081","APOAPSIS":"574.230","NORAD_CAT_ID":"49153","MEAN_MOTION":"14.98334293","COUNTRY_CODE":"US","REF_FRAME":"TEME","PERIAPSIS":"569.859","TIME_SYSTEM":"UTC","BSTAR":"0.00033851000000","FILE":"3736460","GP_ID":"222498216","OBJECT_NAME":"STARLINK-3072","LAUNCH_DATE":"2021-09-14","TLE_LINE2":"2 49153  70.0005 288.6447 0003144 275.7081  84.3719 14.98334293 75041","ECCENTRICITY":"0.00031440","PERIOD":"96.107","CLASSIFICATION_TYPE":"U","MEAN_ELEMENT_THEORY":"SGP4","SEMIMAJOR_AXIS":"6950.180","DECAY_DATE":null,"MEAN_MOTION_DDOT":"0.0000000000000","CENTER_NAME":"EARTH","RA_OF_ASC_NODE":"288.6447","RCS_SIZE":"LARGE","INCLINATION":"70.0005","REV_AT_EPOCH":"7504","EPOCH":"2023-01-08T21:14:36.241152","MEAN_ANOMALY":"84.3719","EPHEMERIS_TYPE":"0","ELEMENT_SET_NO":"999","OBJECT_ID":"2021-082Z","TLE_LINE1":"1 49153U 21082Z   23008.88514168  .00003949  00000-0  33851-3 0  9997"},{"MEAN_MOTION":"14.98337206","ARG_OF_PERICENTER":"246.5844","OBJECT_TYPE":"PAYLOAD","MEAN_MOTION_DOT":"0.00005589","NORAD_CAT_ID":"49154","APOAPSIS":"574.314","SITE":"AFWTR","TIME_SYSTEM":"UTC","PERIAPSIS":"569.757","REF_FRAME":"TEME","COUNTRY_CODE":"US","RA_OF_ASC_NODE":"308.7402","RCS_SIZE":"LARGE","MEAN_MOTION_DDOT":"0.0000000000000","CENTER_NAME":"EARTH","CLASSIFICATION_TYPE":"U","MEAN_ELEMENT_THEORY":"SGP4","DECAY_DATE":null,"SEMIMAJOR_AXIS":"6950.171","ECCENTRICITY":"0.00032780","PERIOD":"96.107","TLE_LINE2":"2 49154  70.0032 308.7402 0003278 246.5844 113.4971 14.98337206 74419","LAUNCH_DATE":"2021-09-14","OBJECT_NAME":"STARLINK-3068","GP_ID":"222496964","FILE":"3736460","BSTAR":"0.00047574000000","ELEMENT_SET_NO":"999","OBJECT_ID":"2021-082AA","TLE_LINE1":"1 49154U 21082AA  23008.84567112  .00005589  00000-0  47574-3 0  9990","MEAN_ANOMALY":"113.4971","EPHEMERIS_TYPE":"0","EPOCH":"2023-01-08T20:17:45.984768","REV_AT_EPOCH":"7441","INCLINATION":"70.0032"},{"TLE_LINE2":"2 49155  70.0004 290.3500 0003266 251.0137 109.0669 14.98320748 74819","LAUNCH_DATE":"2021-09-14","PERIOD":"96.108","ECCENTRICITY":"0.00032660","BSTAR":"0.00003894400000","GP_ID":"222466233","OBJECT_NAME":"STARLINK-3060","FILE":"3736235","CENTER_NAME":"EARTH","MEAN_MOTION_DDOT":"0.0000000000000","RCS_SIZE":"LARGE","RA_OF_ASC_NODE":"290.3500","CLASSIFICATION_TYPE":"U","MEAN_ELEMENT_THEORY":"SGP4","SEMIMAJOR_AXIS":"6950.222","DECAY_DATE":null,"EPOCH":"2023-01-08T05:06:23.957856","INCLINATION":"70.0004","REV_AT_EPOCH":"7481","ELEMENT_SET_NO":"999","OBJECT_ID":"2021-082AB","TLE_LINE1":"1 49155U 21082AB  23008.21277729  .00000372  00000-0  38944-4 0  9991","MEAN_ANOMALY":"109.0669","EPHEMERIS_TYPE":"0","MEAN_MOTION_DOT":"0.00000372","OBJECT_TYPE":"PAYLOAD","ARG_OF_PERICENTER":"251.0137","APOAPSIS":"574.356","NORAD_CAT_ID":"49155","SITE":"AFWTR","MEAN_MOTION":"14.98320748","COUNTRY_CODE":"US","PERIAPSIS":"569.817","TIME_SYSTEM":"UTC","REF_FRAME":"TEME"},{"COUNTRY_CODE":"US","REF_FRAME":"TEME","TIME_SYSTEM":"UTC","PERIAPSIS":"569.858","SITE":"AFWTR","NORAD_CAT_ID":"49156","APOAPSIS":"574.198","ARG_OF_PERICENTER":"289.4314","OBJECT_TYPE":"PAYLOAD","MEAN_MOTION_DOT":"0.00006054","MEAN_MOTION":"14.98339750","REV_AT_EPOCH":"7489","INCLINATION":"70.0017","EPOCH":"2023-01-08T17:27:59.728896","EPHEMERIS_TYPE":"0","MEAN_ANOMALY":"70.6507","TLE_LINE1":"1 49156U 21082AC  23008.72777464  .00006054  00000-0  51461-3 0  9990","ELEMENT_SET_NO":"999","OBJECT_ID":"2021-082AC","OBJECT_NAME":"STARLINK-3085","GP_ID":"222497466","FILE":"3736460","BSTAR":"0.00051461000000","PERIOD":"96.106","ECCENTRICITY":"0.00031220","LAUNCH_DATE":"2021-09-14","TLE_LINE2":"2 49156  70.0017 289.0393 0003122 289.4314  70.6507 14.98339750 74897","DECAY_DATE":null,"SEMIMAJOR_AXIS":"6950.163","CLASSIFICATION_TYPE":"U","MEAN_ELEMENT_THEORY":"SGP4","RCS_SIZE":"LARGE","RA_OF_ASC_NODE":"289.0393","MEAN_MOTION_DDOT":"0.0000000000000","CENTER_NAME":"EARTH"},{"MEAN_MOTION":"14.98328483","NORAD_CAT_ID":"49157","APOAPSIS":"574.430","ARG_OF_PERICENTER":"246.2137","OBJECT_TYPE":"PAYLOAD","MEAN_MOTION_DOT":"0.00001018","SITE":"AFWTR","TIME_SYSTEM":"UTC","PERIAPSIS":"569.695","REF_FRAME":"TEME","COUNTRY_CODE":"US","RCS_SIZE":"LARGE","RA_OF_ASC_NODE":"308.7552","MEAN_MOTION_DDOT":"0.0000000000000","CENTER_NAME":"EARTH","DECAY_DATE":null,"SEMIMAJOR_AXIS":"6950.198","CLASSIFICATION_TYPE":"U","MEAN_ELEMENT_THEORY":"SGP4","ECCENTRICITY":"0.00034060","PERIOD":"96.107","TLE_LINE2":"2 49157  70.0013 308.7552 0003406 246.2137 113.8665 14.98328483 74435","LAUNCH_DATE":"2021-09-14","GP_ID":"222497717","OBJECT_NAME":"STARLINK-3051","FILE":"3736460","BSTAR":"0.00009310000000","TLE_LINE1":"1 49157U 21082AD  23008.84089782  .00001018  00000-0  93100-4 0  9995","ELEMENT_SET_NO":"999","OBJECT_ID":"2021-082AD","EPHEMERIS_TYPE":"0","MEAN_ANOMALY":"113.8665","EPOCH":"2023-01-08T20:10:53.571648","REV_AT_EPOCH":"7443","INCLINATION":"70.0013"}];
